spkid,a,e,i,om,w,ma,epoch,diameter,spec_B
2000391,2.319649561,0.305685877,23.20358812,212.8644871,147.0248032,211.09554,2459000.5,15.751,S
2000433,1.458045729,0.222951265,10.83054122,304.2993259,178.8822959,271.0717326,2459000.5,16.84,S
2000512,2.189676224,0.254017189,8.747939439,107.0286483,249.1877137,335.3433909,2459000.5,23.09,S
2000719,2.638602064,0.546558465,11.56748478,183.86695,156.1763377,140.2734218,2459000.5,0,S
2000985,2.299643407,0.276987821,4.057656172,290.2939683,59.53518979,15.60568361,2459000.5,0,S
2001036,2.664724624,0.533046118,26.67764119,215.5468279,132.3646325,4.817744335,2459000.5,37.675,S
2001065,2.360529471,0.297360058,8.363335161,330.3230629,353.6264467,310.543249,2459000.5,0,S
2001131,2.228866131,0.285740367,3.229923251,100.6759577,248.0601539,101.3724394,2459000.5,0,S
2001134,2.676529419,0.469738279,15.31985858,5.770188685,332.8838635,230.2323458,2459000.5,0,S
2001139,1.947174959,0.255851018,13.08602085,213.3362142,206.716333,113.3261634,2459000.5,0,S
2001204,2.263126193,0.293652321,1.879165943,7.543945219,313.6615497,39.80956466,2459000.5,0,S
2001508,2.77208601,0.41779414,28.67739063,13.99092667,93.23566484,207.3843597,2459000.5,0,C
2001593,2.224477059,0.281409102,9.980895039,120.0134032,185.3533226,251.5089485,2459000.5,6.095,S
2001620,1.245666864,0.335454802,13.33704335,337.1869753,276.9560677,235.1126414,2459000.5,2.56,S
2001627,1.863272945,0.396783058,8.451869889,133.1193428,167.7934626,256.5069001,2459000.5,9.12,S
2001640,2.289011199,0.3429393,7.108234319,355.44496,354.793321,305.1800608,2459000.5,0,S
2001685,1.367586472,0.43583711,9.383132321,274.2452382,127.2065884,290.2506511,2459000.5,3.4,S
2001865,1.079993933,0.466853121,16.09595507,212.9201787,325.2454991,3.320367864,2459000.5,1.2,S
2001866,1.89369921,0.538083305,41.19929069,63.49079971,293.0630044,104.184673,2459000.5,8.48,S
2001916,2.27308656,0.449641167,12.88010266,340.5990723,335.8670314,179.6982275,2459000.5,3.5,S
2002064,2.178626927,0.329840405,5.695804485,302.1410513,2.717226406,88.91437181,2459000.5,13.61,S
2002204,2.593451019,0.405368575,20.57716507,160.0472998,283.8635822,226.2259226,2459000.5,25.16,X
2002744,2.301760494,0.332575798,6.744000287,315.5442205,44.00313871,284.7277643,2459000.5,0,S
2003040,1.840951242,0.200134019,46.64600589,143.4918587,290.1616199,248.104831,2459000.5,3.377,S
2003102,2.151154456,0.449318191,8.441614512,172.0638477,154.742201,101.8877455,2459000.5,1.6,S
2003122,1.768974947,0.422944591,22.14249625,336.0638556,27.84781487,50.43779607,2459000.5,4.9,S
2003198,2.180260682,0.239001667,17.96510758,83.56987064,40.53293727,319.2275948,2459000.5,0,S
2003255,2.374380528,0.362334973,21.35288347,337.0447261,79.36460919,274.7642998,2459000.5,4.023,S
2003401,2.36774638,0.359548569,21.79547132,322.3560943,108.6270216,174.9406164,2459000.5,7.023,S
2003635,1.794633632,0.08463001,19.22193131,235.3467223,249.1993836,323.2232642,2459000.5,0,S
2003737,2.406965114,0.396457832,20.13345592,288.1872889,85.43647134,285.271777,2459000.5,6.968,S
2003800,1.577906029,0.075606203,14.84825672,95.44521032,115.7971574,27.74129069,2459000.5,1.624,S
2003873,1.892179136,0.133937255,23.35245924,250.044388,267.7039363,159.3290053,2459000.5,5.021,S
2004222,2.366599282,0.296173219,3.740782017,206.8150567,217.9591538,14.86398322,2459000.5,9.636,S
2004435,2.318720564,0.334107463,21.92413216,330.7677449,110.3924488,238.3061418,2459000.5,5.042,S
2004451,2.604523567,0.383663599,27.79664852,219.3571245,110.2485382,175.8119096,2459000.5,0,S
2004558,2.197599919,0.362591826,22.18633626,254.837188,94.36042307,268.4487131,2459000.5,7.326,S
2004910,2.441024454,0.32504821,4.997795819,180.0104214,155.0425613,187.3958444,2459000.5,4.326,S
2004954,2.000855358,0.449383752,17.42943968,358.4436102,52.58954693,150.9533899,2459000.5,10.8,S
2004957,1.565492771,0.218791405,35.01082611,254.9001694,97.46013766,65.36830944,2459000.5,3.499,S
2004995,2.340976878,0.311412787,20.60682929,321.9742748,88.99841702,323.1920973,2459000.5,0,S
2005038,2.311767991,0.281371363,10.92670887,65.65825909,219.5763754,155.7914007,2459000.5,3.761,S
2005131,1.486128269,0.569153935,36.43079052,110.3753217,135.8463475,207.6031725,2459000.5,0,S
2005230,2.398607638,0.374480441,20.67932027,195.2031758,266.4125331,270.415846,2459000.5,5.681,S
2005253,1.974467845,0.224613121,28.76759289,71.26544813,69.33756469,121.2443209,2459000.5,2.449,S
2005349,2.786833744,0.467842263,28.46291304,1.367084286,81.04296827,264.909986,2459000.5,0,C
2005510,2.190562693,0.244571958,5.684733608,109.2248189,234.6907319,279.4609325,2459000.5,4.314,S
2005626,2.194606398,0.454391793,3.84855068,173.0971767,231.8811509,74.92458635,2459000.5,0,S
2005649,2.28051067,0.3367847,21.72281944,3.438751329,62.55356472,193.3673301,2459000.5,2.6,S
2005732,2.223205604,0.403997126,22.45209854,240.6260002,253.268053,150.9418971,2459000.5,0,S
2005751,2.103979839,0.423474765,16.07356216,121.6660622,25.30520977,97.17949569,2459000.5,2.3,X
2005817,2.408005235,0.340451816,21.10716778,340.4656093,82.8343235,45.32743354,2459000.5,6.497,S
2005836,2.439716446,0.536919702,7.949706206,238.7840605,77.9397435,6.120708049,2459000.5,2.754,S
2006047,1.454478112,0.352312194,23.47155586,6.102252743,103.7711192,63.48251975,2459000.5,0,S
2006386,2.272089893,0.301007075,8.734670304,119.8127805,268.0068119,306.6113549,2459000.5,0,S
2006455,2.24098535,0.572546355,37.33702644,26.94439204,262.7619615,119.8834239,2459000.5,4.626,S
2007474,1.565655509,0.292079473,7.088236898,88.62406025,275.6128605,44.59185182,2459000.5,0,X
2007480,1.567757569,0.316820764,9.45389801,124.3776326,256.8417624,14.88496336,2459000.5,0,S
2007482,1.346161268,0.328304587,33.48902941,117.8849792,47.60888226,318.5260612,2459000.5,1.052,S
2007604,3.112308885,0.573655876,20.44800545,147.2321252,266.2333287,156.942125,2459000.5,0,C
2007822,1.122920698,0.164646301,37.12099026,156.8525778,249.4339913,296.8335642,2459000.5,1.602,S
2007977,2.22649528,0.466102313,25.164463,134.1643446,248.034625,298.6560505,2459000.5,0,S
2010302,1.272206355,0.136402908,4.378247099,104.340157,183.3544004,188.5354319,2459000.5,0,X
2011500,1.079768039,0.355779589,10.30870903,234.4277374,289.4574529,358.2464565,2459000.5,0.738,S
2013651,1.335527442,0.305659372,17.24854703,116.6637801,133.8249892,320.9064103,2459000.5,0.562,S
2014402,1.714934363,0.401733531,11.41654218,158.2239152,51.38845391,343.4196862,2459000.5,0.6,C
2015745,1.719662308,0.255181094,14.42831299,132.6151046,140.6336668,305.0952231,2459000.5,0,S
2016064,2.849238178,0.589110015,4.539228929,335.5695839,104.795763,75.81081977,2459000.5,4.106,C
2016834,1.467868377,0.442161748,15.99022749,260.7957474,334.3298754,80.86960594,2459000.5,1.87,S
2017511,1.189978887,0.358838054,9.582650846,355.9243691,202.3593541,235.8040999,2459000.5,0,X
2018882,1.685186493,0.231713905,36.8167553,291.6993127,242.6572271,49.00224859,2459000.5,0,S
2019356,2.502511718,0.562630482,3.003666776,186.7010109,333.8510726,317.1590267,2459000.5,0.91,S
2020790,2.742488908,0.560725441,8.334678788,302.9563014,168.9210094,94.31495043,2459000.5,0,S
2022449,2.343320345,0.352445356,21.52882196,2.488116847,70.3473869,193.3761724,2459000.5,3.762,S
2032906,2.246982205,0.440929526,18.93088856,331.2169244,92.31332464,194.8388229,2459000.5,0,S
2035432,2.505850075,0.543880963,13.1375867,115.3382997,1.463502429,221.0737842,2459000.5,0,S
2037336,2.253044547,0.483479554,36.66479965,223.6626094,117.98179,203.2985688,2459000.5,0,S
2048603,1.917879893,0.429885175,5.024644851,328.2653982,81.76389397,229.1682359,2459000.5,0.844,X
2053435,2.312181019,0.482694331,15.34203245,51.36783798,354.4302144,320.6252767,2459000.5,0,S
2054686,1.776585967,0.341970809,33.20448213,161.7118465,265.9189674,101.4775054,2459000.5,1.349,S
2065706,2.39712385,0.555515589,9.638792907,349.1809182,8.690053735,172.1948769,2459000.5,0,C
2085774,1.402899507,0.32911839,13.58886607,64.65416912,50.11949882,309.6965997,2459000.5,0.939,C
2085818,1.656675907,0.416367527,62.71396873,235.6567645,301.2556066,286.8744067,2459000.5,2.028,S
2086326,1.844427221,0.36251082,34.31110731,78.46236987,312.5759355,80.43922614,2459000.5,1.348,S
2089355,1.786735863,0.308219391,22.6678275,103.1056399,84.90354261,224.6953262,2459000.5,2.038,S
2099913,2.292973169,0.397845705,24.95093083,287.9525376,169.5095984,261.0675082,2459000.5,0,S
2100756,2.268264442,0.553195087,11.54644586,176.5939193,311.9124324,190.7309619,2459000.5,1.809,S
2100926,1.782989066,0.407417926,24.23865937,221.1091471,138.756371,27.18811218,2459000.5,1.174,S
2136793,1.147073296,0.465339012,17.37447789,296.2675017,37.00932301,108.8672085,2459000.5,0,C
2136795,1.747208814,0.478609772,10.99172312,50.19110281,147.4553544,17.87248474,2459000.5,0,S
2139056,1.885729133,0.327424419,4.733697662,111.2447829,110.4281208,130.8270313,2459000.5,0.32,S
2152756,1.45078617,0.414990141,15.22500812,229.050965,101.537068,325.9414388,2459000.5,0,S
2162567,1.247553147,0.250267225,13.74793237,333.3082982,133.2757361,320.3833119,2459000.5,0.335,C
2162781,2.224330724,0.427524603,10.04527811,332.0275591,163.8848343,295.5225108,2459000.5,0,S
2171839,1.460900672,0.310834474,17.07199157,226.6870646,321.8894367,305.76887,2459000.5,0,S
2175706,1.053809166,0.34971208,1.99121027,299.679991,24.05137271,15.70799806,2459000.5,1.196,C
2189040,1.372901217,0.382536264,13.09467379,130.0848053,63.64946239,184.0589824,2459000.5,0,S
2194006,1.448545059,0.424381423,4.257218863,184.9702545,101.6054614,290.39039,2459000.5,0,X
2194268,1.452995039,0.787498741,5.437277356,160.7573468,107.7489747,253.8433906,2459000.5,1.244,X
2200754,1.756097703,0.516800567,15.51271847,279.7890607,83.72082915,3.61056155,2459000.5,0.553,S
2200840,2.325755853,0.557920996,1.9403338,264.4946161,278.3308763,46.67299157,2459000.5,0,S
2207970,2.635271717,0.530616907,3.383398491,176.8214954,280.0547886,246.7871448,2459000.5,0,X
2228368,1.478952546,0.702124462,14.73814876,57.97198872,244.4781385,354.1694711,2459000.5,0,X
2308635,1.15707221,0.430583541,0.34024012,35.92178441,273.5761685,2.183501771,2459000.5,0.4,C
